NORAD_CAT_ID,OBJECT_NAME,OBJECT_TYPE,EPOCH,MEAN_MOTION,ECCENTRICITY,INCLINATION,RA_OF_ASC_NODE,ARG_OF_PERICENTER,MEAN_ANOMALY,BSTAR,MEAN_MOTION_DOT,MEAN_MOTION_DDOT,TLE_LINE0,TLE_LINE1,TLE_LINE2,SEMIMAJOR_AXIS,PERIOD,APOGEE,PERIGEE,DECAYED
52361.0,STARLINK-3728,PAYLOAD,2022-05-04 18:00:02,15.83889662,7.68e-05,53.2174,52.3973,57.5822,358.2609,-0.0042777,-0.00880412,0.0,0 STARLINK-3728,1 52361U 22045AG  22124.75002315 -.00880412  00000-0 -42777-2 0  9998,2 52361  53.2174  52.3973 0000768  57.5822 358.2609 15.83889662  3316,6697.59,90.915,319.969,318.941,0.0
52361.0,STARLINK-3728,PAYLOAD,2022-05-05 14:00:01,15.82313499,0.0001051,53.2174,48.2132,75.6574,52.1673,-0.0045751,-0.00874279,0.0,0 STARLINK-3728,1 52361U 22045AG  22125.58334491 -.00874279  00000-0 -45751-2 0  9992,2 52361  53.2174  48.2132 0001051  75.6574  52.1673 15.82313499  3442,6702.0369999999975,91.006,324.606,323.198,0.0
52361.0,STARLINK-3728,PAYLOAD,2022-05-05 22:00:00,15.81686334,0.0001179,53.2176,46.5428,75.0185,152.3007,-0.0047328,-0.00877786,0.0,0 STARLINK-3728,1 52361U 22045AG  22125.91667824 -.00877786  00000-0 -47328-2 0  9996,2 52361  53.2176  46.5428 0001179  75.0185 152.3007 15.81686334  1550,6703.809,91.042,326.464,324.883,0.0
52361.0,STARLINK-3728,PAYLOAD,2022-05-06 08:00:01,15.80836135,9.78e-05,53.2163,44.4575,89.7854,350.8713,-0.0044043999999999,-0.00792921,0.0,0 STARLINK-3728,1 52361U 22045AG  22126.33334491 -.00792921  00000-0 -44044-2 0  9993,2 52361  53.2163  44.4575 0000978  89.7854 350.8713 15.80836135  3564,6706.212,91.091,328.733,327.421,0.0
52361.0,STARLINK-3728,PAYLOAD,2022-05-06 14:00:01,15.80425949,0.0001001,53.2176,43.2044,87.9178,336.1251,-0.0049982,-0.00874391,0.0,0 STARLINK-3728,1 52361U 22045AG  22126.58334491 -.00874391  00000-0 -49982-2 0  9998,2 52361  53.2176  43.2044 0001001  87.9178 336.1251 15.80425949  1663,6707.371999999999,91.115,329.909,328.566,0.0
52361.0,STARLINK-3728,PAYLOAD,2022-05-06 22:00:00,15.79797039,0.0001166,53.2177,41.5387,76.6262,84.6431,-0.0051482,-0.00874859,0.0,0 STARLINK-3728,1 52361U 22045AG  22126.91667824 -.00874859  00000-0 -51482-2 0  9991,2 52361  53.2177  41.5387 0001166  76.6262  84.6431 15.79797039  3652,6709.151999999999,91.151,331.7990000000001,330.235,0.0
52361.0,STARLINK-3728,PAYLOAD,2022-05-07 14:00:01,15.78537418,9.28e-05,53.2173,38.2095,90.769,262.687,-0.0054412,-0.00872982,0.0,0 STARLINK-3728,1 52361U 22045AG  22127.58334491 -.00872982  00000-0 -54412-2 0  9997,2 52361  53.2173  38.2095 0000928  90.7690 262.6870 15.78537418  1828,6712.721,91.224,335.209,333.963,0.0
52361.0,STARLINK-3728,PAYLOAD,2022-05-07 20:00:01,15.78069406,0.0001001,53.2175,36.9633,81.7628,252.981,-0.0055977,-0.0087865,0.0,0 STARLINK-3728,1 52361U 22045AG  22127.83334491 -.00878650  00000-0 -55977-2 0  9990,2 52361  53.2175  36.9633 0001001  81.7628 252.9810 15.78069406  3798,6714.0480000000025,91.251,336.585,335.241,0.0
52361.0,STARLINK-3728,PAYLOAD,2022-05-07 22:00:00,15.77909901,0.000107,53.2174,36.5488,70.1597,18.2528,-0.0056154,-0.00875454,0.0,0 STARLINK-3728,1 52361U 22045AG  22127.91667824 -.00875454  00000-0 -56154-2 0  9995,2 52361  53.2174  36.5488 0001070  70.1597  18.2528 15.77909901  1872,6714.5,91.26,337.084,335.647,0.0
52361.0,STARLINK-3728,PAYLOAD,2022-05-08 14:00:01,15.76650021,0.0001077,53.2175,33.2284,97.1418,178.92,-0.0059232,-0.00872906,0.0,0 STARLINK-3728,1 52361U 22045AG  22128.58334491 -.00872906  00000-0 -59232-2 0  9999,2 52361  53.2175  33.2284 0001077  97.1418 178.9200 15.76650021  1976,6718.0769999999975,91.333,340.665,339.218,0.0
52361.0,STARLINK-3728,PAYLOAD,2022-05-08 20:00:01,15.76179994,0.0001138,53.2178,31.9861,87.666,167.9828,-0.0060698,-0.00875702,0.0,0 STARLINK-3728,1 52361U 22045AG  22128.83334491 -.00875702  00000-0 -60698-2 0  9992,2 52361  53.2178  31.9861 0001138  87.6660 167.9828 15.76179994  3955,6719.4119999999975,91.36,342.042,340.5130000000001,0.0
52361.0,STARLINK-3728,PAYLOAD,2022-05-08 22:00:00,15.76022886,9.82e-05,53.2177,31.5725,81.3748,287.3756,-0.0061163,-0.00876172,0.0,0 STARLINK-3728,1 52361U 22045AG  22128.91667824 -.00876172  00000-0 -61163-2 0  9990,2 52361  53.2177  31.5725 0000982  81.3748 287.3756 15.76022886  2035,6719.859,91.369,342.384,341.064,0.0
52361.0,STARLINK-3728,PAYLOAD,2022-05-09 14:00:01,15.74762452,0.000114,53.2171,28.2612,89.2258,102.7022,-0.0064375,-0.00872731,0.0,0 STARLINK-3728,1 52361U 22045AG  22129.58335648 -.00872731  00000-0 -64375-2 0  9995,2 52361  53.2171  28.2612 0001140  89.2258 102.7022 15.74762452  2132,6723.444,91.442,346.076,344.543,0.0
52361.0,STARLINK-3728,PAYLOAD,2022-05-09 22:00:00,15.74133436,0.0001135,53.2173,26.6103,93.5387,188.7439,-0.0066282,-0.00874065,0.0,0 STARLINK-3728,1 52361U 22045AG  22129.91667824 -.00874065  00000-0 -66282-2 0  9997,2 52361  53.2173  26.6103 0001135  93.5387 188.7439 15.74133436  2192,6725.235,91.479,347.86400000000015,346.337,0.0
52361.0,STARLINK-3728,PAYLOAD,2022-05-10 00:00:00,15.73956516,0.0001,53.2173,26.1978,89.8527,304.921,-0.0063086,-0.00829944,0.0,0 STARLINK-3728,1 52361U 22045AG  22130.00001157 -.00829944  00000-0 -63086-2 0  9995,2 52361  53.2173  26.1978 0001000  89.8527 304.9210 15.73956516  4138,6725.739000000001,91.489,348.277,346.932,0.0
52361.0,STARLINK-3728,PAYLOAD,2022-05-10 08:00:01,15.73225399,0.0001103,53.2173,24.5464,115.4084,8.8483,-0.00025488,-0.00036274,0.0,0 STARLINK-3728,1 52361U 22045AG  22130.33334491 -.00036274  00000-0 -25488-3 0  9992,2 52361  53.2173  24.5464 0001103 115.4084   8.8483 15.73225399  4194,6727.823,91.532,350.43,348.946,0.0
52361.0,STARLINK-3728,PAYLOAD,2022-05-10 14:00:01,15.73205613,0.0001054,53.2173,23.3079,97.0263,3.9407,-1.9715e-05,-3.386e-05,0.0,0 STARLINK-3728,1 52361U 22045AG  22130.58334491 -.00003386  00000-0 -19715-4 0  9994,2 52361  53.2173  23.3079 0001054  97.0263   3.9407 15.73205613  2290,6727.879,91.533,350.45300000000015,349.035,0.0
52361.0,STARLINK-3728,PAYLOAD,2022-05-10 18:00:00,15.73206598,0.0001145,53.2178,22.4835,99.5427,225.8906,-2.272e-05,-3.808e-05,0.0,0 STARLINK-3728,1 52361U 22045AG  22130.75001157 -.00003808  00000-0 -22720-4 0  9992,2 52361  53.2178  22.4835 0001145  99.5427 225.8906 15.73206598  4255,6727.876,91.533,350.51199999999994,348.971,0.0
52361.0,STARLINK-3728,PAYLOAD,2022-05-11 22:00:00,15.73191919,0.000132,53.2133,16.7138,97.0843,359.7782,0.00014908,0.00020346,0.0,0 STARLINK-3728,1 52361U 22045AG  22131.91667824  .00020346  00000-0  14908-3 0  9992,2 52361  53.2133  16.7138 0001320  97.0843 359.7782 15.73191919  4448,6727.918000000002,91.534,350.671,348.895,0.0
52361.0,STARLINK-3728,PAYLOAD,2022-05-12 14:00:01,15.73203617,0.0001036,53.2134,13.4128,109.1511,165.6251,0.00046903,0.00065732,0.0,0 STARLINK-3728,1 52361U 22045AG  22132.58334491  .00065732  00000-0  46903-3 0  9995,2 52361  53.2134  13.4128 0001036 109.1511 165.6251 15.73203617  1309,6727.885,91.533,350.44699999999995,349.05300000000005,0.0
52361.0,STARLINK-3728,PAYLOAD,2022-05-12 22:00:00,15.73258956,0.0001136,53.2133,11.7651,97.0926,266.6222,-0.0003752,-0.00053077,0.0,0 STARLINK-3728,1 52361U 22045AG  22132.91667824 -.00053077  00000-0 -37520-3 0  9997,2 52361  53.2133  11.7651 0001136  97.0926 266.6222 15.73258956  1302,6727.727,91.53,350.356,348.82800000000015,0.0
52361.0,STARLINK-3728,PAYLOAD,2022-05-13 06:00:00,15.73234732,0.0001038,53.2126,10.1153,96.52,356.1531,-0.00040161,-0.00056686,0.0,0 STARLINK-3728,1 52361U 22045AG  22133.25001157 -.00056686  00000-0 -40161-3 0  9990,2 52361  53.2126  10.1153 0001038  96.5200 356.1531 15.73234732  4659,6727.795999999999,91.531,350.3590000000001,348.963,0.0
52361.0,STARLINK-3728,PAYLOAD,2022-05-13 14:00:01,15.73181192,0.0001113,53.2127,8.464,111.1425,70.4696,-6.3206e-05,-9.473e-05,0.0,0 STARLINK-3728,1 52361U 22045AG  22133.58334491 -.00009473  00000-0 -63206-4 0  9994,2 52361  53.2127   8.4640 0001113 111.1425  70.4696 15.73181192  1306,6727.949000000001,91.534,350.56300000000016,349.065,0.0
52361.0,STARLINK-3728,PAYLOAD,2022-05-13 22:00:00,15.73180309,0.0001202,53.2129,6.8166,99.6527,170.8492,-3.3735e-05,-5.347e-05,0.0,0 STARLINK-3728,1 52361U 22045AG  22133.91667824 -.00005347  00000-0 -33735-4 0  9990,2 52361  53.2129   6.8166 0001202  99.6527 170.8492 15.73180309  1303,6727.951,91.534,350.625,349.0080000000001,0.0
52361.0,STARLINK-3728,PAYLOAD,2022-05-14 06:00:00,15.73186087,0.0001208,53.2129,5.1667,97.7699,261.6469,-5.7388e-05,-8.66e-05,0.0,0 STARLINK-3728,1 52361U 22045AG  22134.25001157 -.00008660  00000-0 -57388-4 0  9990,2 52361  53.2129   5.1667 0001208  97.7699 261.6469 15.73186087  4806,6727.935,91.534,350.61300000000006,348.987,0.0
52361.0,STARLINK-3728,PAYLOAD,2022-05-14 14:00:01,15.73181261,0.0001321,53.2131,3.5155,106.9744,341.3628,0.00070015,0.00098724,0.0,0 STARLINK-3728,1 52361U 22045AG  22134.58334491  .00098724  00000-0  70015-3 0  9995,2 52361  53.2131   3.5155 0001321 106.9744 341.3628 15.73181261  4861,6727.949000000001,91.534,350.702,348.925,0.0
52361.0,STARLINK-3728,PAYLOAD,2022-05-14 22:00:00,15.73277841,0.0001199,53.2128,1.8678,97.2019,80.0905,-0.00035452,-0.00050243,0.0,0 STARLINK-3728,1 52361U 22045AG  22134.91667824 -.00050243  00000-0 -35452-3 0  9993,2 52361  53.2128   1.8678 0001199  97.2019  80.0905 15.73277841  1309,6727.6730000000025,91.529,350.345,348.732,0.0
52361.0,STARLINK-3728,PAYLOAD,2022-05-15 06:00:00,15.73276652,0.0001022,53.2121,0.2174,101.7834,164.4913,-0.00080068,-0.0011187,0.0,0 STARLINK-3728,1 52361U 22045AG  22135.25001157 -.00111870  00000-0 -80068-3 0  9999,2 52361  53.2121   0.2174 0001022 101.7834 164.4913 15.73276652  4967,6727.677,91.529,350.22900000000016,348.85400000000016,0.0
52361.0,STARLINK-3728,PAYLOAD,2022-05-15 14:00:01,15.73176994,0.0001075,53.2123,358.5662,115.6462,239.6812,0.00015188,0.00020727,0.0,0 STARLINK-3728,1 52361U 22045AG  22135.58335648  .00020727  00000-0  15188-3 0  9999,2 52361  53.2123 358.5662 0001075 115.6462 239.6812 15.73176994  1305,6727.9609999999975,91.535,350.5490000000001,349.103,0.0
